ORBCOMM FM20            
1 25416U 98046D   25212.53538315  .00000773  00000+0  30423-3 0  9991
2 25416  44.9959 331.2392 0002226 191.7869 168.2927 14.37278569410648
ORBCOMM FM16            
1 25417U 98046E   25212.61735170  .00001070  00000+0  38927-3 0  9997
2 25417  44.9950 321.8351 0005868 178.0085 182.0787 14.39003713410651
ORBCOMM FM14            
1 25419U 98046G   25212.61111299  .00001114  00000+0  40320-3 0  9998
2 25419  44.9972 325.2517 0004291 178.3035 181.7829 14.39010938410612
ORBCOMM FM13            
1 25420U 98046H   25212.48606357  .00000976  00000+0  36804-3 0  9996
2 25420  44.9990 334.2549 0005904 155.8312 204.2814 14.37750600409617
ORBCOMM FM21            
1 25475U 98053A   25212.08550716  .00000759  00000+0  29880-3 0  9992
2 25475  45.0089  61.5963 0001980  78.0683 282.0387 14.37416623403566
ORBCOMM FM22            
1 25476U 98053B   25212.57669055  .00001087  00000+0  39906-3 0  9999
2 25476  45.0084  53.7625 0003811  88.0856 272.0429 14.38473594403666
ORBCOMM FM23            
1 25477U 98053C   25212.56705240  .00000971  00000+0  36772-3 0  9995
2 25477  45.0089  61.3756 0002984  79.6054 280.5130 14.37607446403788
